ONEWEB-0144             
1 47290U 20100AJ  25276.59996229 -.00000256  00000+0 -74776-3 0  9996
2 47290  87.8931  41.6088 0001990 103.6285 256.5065 13.12441110230913
ONEWEB-0145             
1 47291U 20100AK  25276.41829330  .00000530  00000+0  14371-2 0  9993
2 47291  87.8938  41.6780 0001791 100.8969 259.2362 13.12442044231083
ONEWEB-0146             
1 47292U 20100AL  25276.41505522  .00000489  00000+0  13233-2 0  9997
2 47292  87.8937  41.6654 0001428  92.7564 267.3728 13.12442600230993
ONEWEB-0147             
1 47293U 20100AM  25276.60969032 -.00000350  00000+0 -10093-2 0  9999
2 47293  87.8941  41.6051 0001716 109.0452 251.0863 13.12442649230913
ONEWEB-0115             
1 48042U 21025A   25276.53339243 -.00000157  00000+0 -46572-3 0  9993
2 48042  87.9050  11.2071 0001812  99.8693 260.2641 13.13470674219905
ONEWEB-0152             
1 48043U 21025B   25276.31839919  .00000183  00000+0  46671-3 0  9992
2 48043  87.9042  11.2632 0001710 101.0123 259.1199 13.13469340219836
ONEWEB-0153             
1 48044U 21025C   25276.29639133 -.00000351  00000+0 -99650-3 0  9990
2 48044  87.9056  11.2685 0001887 100.6715 259.4627 13.13468593219824
ONEWEB-0154             
1 48045U 21025D   25276.52154476 -.00000310  00000+0 -88365-3 0  9995
2 48045  87.9054  11.2205 0001793 102.9780 257.1549 13.13469972219813
